STARLINK-35233          
1 65678U 25212C   25287.25002315 -.00092001  00000+0 -16634-2 0  9991
2 65678  53.1594 306.7322 0001424  83.9666 177.7320 15.49346550  4860
STARLINK-35205          
1 65679U 25212D   25287.33148000  .00073837  00000+0  13218-2 0  9992
2 65679  53.1592 306.3337 0001376  87.1177 272.9989 15.49337811  4779
STARLINK-35070          
1 65680U 25212E   25287.25002315 -.00088541  00000+0 -15998-2 0  9990
2 65680  53.1594 306.7166 0002240  90.9114 178.4571 15.49344420  4851
STARLINK-35230          
1 65681U 25212F   25287.25002315  .00040839  00000+0  73994-3 0  9998
2 65681  53.1595 306.7115 0001316  79.5940 191.7573 15.49253097  4860
STARLINK-35235          
1 65682U 25212G   25287.25002315  .00039605  00000+0  71778-3 0  9996
2 65682  53.1594 306.7046 0001790  86.9304 188.2372 15.49259473  4801
STARLINK-34886          
1 65683U 25212H   25287.25002315 -.00076498  00000+0 -13795-2 0  9994
2 65683  53.1595 306.7282 0001314  84.7000 178.9161 15.49337397  4710
STARLINK-34795          
1 65684U 25212J   25287.25002315 -.00086883  00000+0 -15695-2 0  9995
2 65684  53.1595 306.7199 0001429  80.9818 186.4665 15.49344880  4763
STARLINK-35145          
1 65685U 25212K   25287.25002315 -.00075840  00000+0 -13672-2 0  9990
2 65685  53.1595 306.6958 0001368  89.0529 189.8938 15.49341019  4713
STARLINK-35137          
1 65686U 25212L   25287.25002315  .00056311  00000+0  10172-2 0  9993
2 65686  53.1591 305.5194 0001361 104.2388  25.6742 15.49196613  4769
STARLINK-34856          
1 65687U 25212M   25287.25002315 -.00094096  00000+0 -17020-2 0  9997
2 65687  53.1594 306.6997 0001447  85.3582 191.6777 15.49345219  4766
STARLINK-34930          
1 65688U 25212N   25287.25002315 -.00078909  00000+0 -14234-2 0  9997
2 65688  53.1596 306.6751 0001380  84.7088 203.8234 15.49340941  4858
STARLINK-34875          
1 65689U 25212P   25287.25002315 -.00078270  00000+0 -14117-2 0  9999
2 65689  53.1595 306.6917 0001364  89.3067 191.5590 15.49341052  4854
STARLINK-34790          
1 65690U 25212Q   25287.25002315 -.00087059  00000+0 -15728-2 0  9995
2 65690  53.1596 306.6836 0001395  81.8252 202.8777 15.49343769  4719
STARLINK-34691          
1 65691U 25212R   25287.25002315 -.00134755  00000+0 -24523-2 0  9995
2 65691  53.1591 305.5152 0001137  69.0121  62.7650 15.49360173  4857
STARLINK-34825          
1 65692U 25212S   25287.25002315 -.00085589  00000+0 -15457-2 0  9992
2 65692  53.1596 306.6796 0001351  81.6970 204.9181 15.49345494  4857
STARLINK-35060          
1 65693U 25212T   25287.25002315 -.00136863  00000+0 -24914-2 0  9993
2 65693  53.1591 305.5110 0001140  72.2886  61.4048 15.49361570  4850
STARLINK-35204          
1 65694U 25212U   25287.25002315 -.00083030  00000+0 -14989-2 0  9992
2 65694  53.1596 306.6673 0001426  89.5737 202.7944 15.49342420  4864
STARLINK-35221          
1 65695U 25212V   25287.25002315 -.00079355  00000+0 -14316-2 0  9992
2 65695  53.1596 306.6630 0001447  86.9253 207.3594 15.49340812  4860
STARLINK-34734          
1 65696U 25212W   25287.25002315 -.00258496  00000+0 -47709-2 0  9990
2 65696  53.1595 306.6597 0001238 100.7400 195.4818 15.49450593  4852
STARLINK-35113          
1 65697U 25212X   25287.25002315  .00039410  00000+0  71564-3 0  9999
2 65697  53.1596 306.6557 0000902  92.4828 205.7084 15.49206485  4857
STARLINK-35090          
1 65698U 25212Y   25287.32529784  .00072408  00000+0  12967-2 0  9997
2 65698  53.1597 306.2907 0001407  87.8732 272.2438 15.49334981  4829
STARLINK-35086          
1 65699U 25212Z   25287.25002315 -.00088209  00000+0 -15938-2 0  9995
2 65699  53.1597 306.6431 0001484  89.8724 213.9940 15.49344598  4762
STARLINK-35101          
1 65700U 25212AA  25287.25002315  .00043084  00000+0  77964-3 0  9996
2 65700  53.1597 306.6471 0001251  89.6846 212.3006 15.49264675  4767
STARLINK-35046          
1 65701U 25212AB  25287.25002315  .00040105  00000+0  72644-3 0  9998
2 65701  53.1598 306.6390 0001383  86.6135 219.1969 15.49269482  4857
STARLINK-35075          
1 65702U 25212AC  25287.25002315  .00034928  00000+0  63405-3 0  9990
2 65702  53.1597 306.6353 0001433  83.2239 224.5027 15.49273346  4859
STARLINK-34839          
1 65703U 25212AD  25287.25002315  .00034833  00000+0  63231-3 0  9993
2 65703  53.1597 306.6310 0001517  81.0517 228.5879 15.49274821  4859
SHIKONGXING 01          
1 65712U 25214A   25284.73474475  .00059666  00000+0  12338-2 0  9997
2 65712  50.2785  19.9438 0189906 282.4465  75.5305 15.28198897  2609
GEESAT-6 01             
1 65713U 25214B   25283.13770470  .00004776  00000+0  55729-3 0  9999
2 65713  50.6954  27.2968 0150037 221.5236 137.4234 14.79039869  2365
GEESAT-6 02             
1 65714U 25214C   25283.26823601  .00001828  00000+0  23223-3 0  9998
2 65714  49.9854  28.0347 0013183 350.9367   9.1333 14.86159418  2386
GEESAT-6 03             
1 65715U 25214D   25286.53911731  .00001023  00000+0  26021-3 0  9990
2 65715  50.0405  13.7072 0247865  68.6999 294.0191 14.41916380  2879
GEESAT-6 04             
1 65716U 25214E   25286.60372421  .00032458  00000+0  12136-2 0  9993
2 65716  50.6147  11.7111 0246709 298.7410  58.8959 15.03101815  2888
GEESAT-6 05             
1 65717U 25214F   25287.29623128  .00003469  00000+0  39931-3 0  9996
2 65717  50.4632  10.0774 0065452 319.9627  39.6505 14.86590940  2989
GEESAT-6 06             
1 65718U 25214G   25285.60477944  .00717096  85693-5  18452-2 0  9992
2 65718  49.7997  16.6893 0588146 347.3512  11.3191 14.84435068  2735
GEESAT-6 07             
1 65719U 25214H   25285.53156133  .00046035  00000+0  17210-2 0  9991
2 65719  49.0500  21.3342 0268512 223.1647 134.7955 14.99308588  2733
GEESAT-6 08             
1 65720U 25214J   25285.27020681  .00363326  31122-4  19103-2 0  9994
2 65720  55.4707  19.3992 0528944 245.0727 109.4447 14.88168379  2682
GEESAT-6 09             
1 65721U 25214K   25284.60280958  .00001081  00000+0  34217-3 0  9993
2 65721  50.0406  24.4586 0590177  91.3925 275.4615 13.77384907  2589
GEESAT-6 10             
1 65722U 25214L   25287.17733514  .00004683  00000+0  41870-3 0  9994
2 65722  51.2867  10.4177 0161239  78.6722 283.2304 14.88273722  2960
GEESAT-6 11             
1 65723U 25214M   25286.60433597 -.00075324  76131-5 -16480-2 0  9994
2 65723  50.0571   2.8027 0877012 165.4212 197.3829 13.87665398  2881
DRAGONFLY               
1 65729U 98067XH  25286.82528686  .00096061  00000+0  13571-2 0  9997
2 65729  51.6320  78.4517 0001097 106.4290 253.6822 15.55761991  3795
1998-067XJ              
1 65730U 98067XJ  25286.86433456  .00183381  00000+0  22338-2 0  9996
2 65730  51.6303  77.9611 0005342 317.7410  42.3171 15.59356052  3809
1998-067XK              
1 65731U 98067XK  25286.83209866  .00076287  00000+0  11207-2 0  9999
2 65731  51.6322  78.4964 0001987 317.1291  42.9545 15.54801026  3790
RSP-03                  
1 65732U 98067XL  25286.82875714  .00083194  00000+0  11997-2 0  9991
2 65732  51.6311  78.4732 0002257 315.7070  44.3740 15.55270077  3804
GHS-01                  
1 65733U 98067XM  25286.82300478  .00108669  00000+0  15142-2 0  9993
2 65733  51.6321  78.4363 0000825 100.7447 259.3638 15.56076842  3804
STARLINK-34086          
1 65734U 25216A   25287.25002315 -.02036524  00000+0 -31843-1 0  9996
2 65734  53.1593 296.1760 0001402  79.7792 134.6241 15.56290473  4009
STARLINK-35099          
1 65735U 25216B   25287.25002315 -.02035890  00000+0 -31829-1 0  9996
2 65735  53.1594 296.1712 0001574  80.1114 136.2071 15.56291195  4058
STARLINK-35167          
1 65736U 25216C   25287.25002315 -.02037532  00000+0 -31856-1 0  9992
2 65736  53.1592 296.1674 0001531  76.7847 141.4486 15.56293015  4120
STARLINK-35121          
1 65737U 25216D   25287.25002315 -.02035664  00000+0 -31826-1 0  9994
2 65737  53.1589 296.1633 0001531  78.1078 142.0446 15.56290111  4121
STARLINK-35108          
1 65738U 25216E   25287.25002315 -.02035930  00000+0 -31830-1 0  9996
2 65738  53.1594 296.1596 0001567  79.0383 143.0311 15.56290523  4167
STARLINK-35106          
1 65739U 25216F   25287.25002315 -.02037191  00000+0 -31852-1 0  9992
2 65739  53.1595 296.1548 0001437  81.8223 142.1633 15.56292210  4056
STARLINK-35130          
1 65740U 25216G   25287.25002315 -.02038000  00000+0 -31863-1 0  9996
2 65740  53.1598 296.1509 0001514  84.0900 141.8113 15.56293691  4166
STARLINK-35284          
1 65741U 25216H   25287.25002315 -.02032748  00000+0 -31777-1 0  9994
2 65741  53.1599 296.1464 0001455  82.7684 145.0533 15.56289437  4127
STARLINK-35316          
1 65742U 25216J   25287.25002315 -.02033688  00000+0 -31793-1 0  9997
2 65742  53.1595 296.1426 0001429  81.0749 148.6627 15.56289959  4129
STARLINK-35319          
1 65743U 25216K   25287.25002315 -.02035973  00000+0 -31831-1 0  9990
2 65743  53.1599 296.1396 0001588  83.0350 148.6194 15.56290508  4161
STARLINK-35173          
1 65744U 25216L   25287.25002315 -.02038746  00000+0 -31879-1 0  9994
2 65744  53.1600 296.1353 0001430  83.2270 150.3443 15.56292141  4169
STARLINK-34808          
1 65745U 25216M   25287.25002315 -.02034878  00000+0 -31813-1 0  9995
2 65745  53.1594 296.1314 0001362  81.7435 153.7430 15.56291110  4099
STARLINK-34704          
1 65746U 25216N   25287.25002315 -.02037514  00000+0 -31857-1 0  9994
2 65746  53.1589 296.1235 0001492  88.6829 150.6378 15.56292240  4118
STARLINK-35214          
1 65747U 25216P   25287.25002315 -.02035767  00000+0 -31828-1 0  9991
2 65747  53.1589 296.1277 0001437  83.5616 153.8426 15.56291082  4125
STARLINK-35265          
1 65748U 25216Q   25287.25002315 -.02036528  00000+0 -31842-1 0  9994
2 65748  53.1591 296.1155 0001350  84.8953 158.2600 15.56291186  4124
STARLINK-35288          
1 65749U 25216R   25287.25002315 -.02037241  00000+0 -31852-1 0  9999
2 65749  53.1592 296.1106 0001473  84.3337 160.7370 15.56292661  4063
